ONEWEB-0589             
1 54655U 22166P   25039.88313461  .00000006  00000+0 -17899-4 0  9999
2 54655  87.9346 342.2991 0001031  63.7566 296.3674 13.21824583106373
ONEWEB-0590             
1 54656U 22166Q   25040.13343986 -.00000016  00000+0 -70720-4 0  9999
2 54656  87.9332 342.2474 0002006  71.4920 288.6431 13.21866719106853
ONEWEB-0591             
1 54657U 22166R   25040.07080412  .00000048  00000+0  84349-4 0  9990
2 54657  87.9345 342.2633 0001696  75.7366 284.3956 13.21827557106874
ONEWEB-0592             
1 54658U 22166S   25040.07396570  .00000028  00000+0  36642-4 0  9997
2 54658  87.9348 342.2152 0002535  87.6859 272.4565 13.21814720106766
ONEWEB-0593             
1 54659U 22166T   25039.87050978  .00000040  00000+0  65029-4 0  9998
2 54659  87.9344 342.2937 0001655  76.6895 283.4424 13.21824603106840
ONEWEB-0594             
1 54660U 22166U   25039.88943648 -.00000023  00000+0 -88291-4 0  9995
2 54660  87.9348 342.2982 0001819  81.8755 278.2585 13.21824425106393
ONEWEB-0595             
1 54661U 22166V   25040.09445358  .00000110  00000+0  23428-3 0  9991
2 54661  87.9346 342.2390 0002012  78.9436 281.1924 13.21825853106862
ONEWEB-0596             
1 54662U 22166W   25040.06763937 -.00000022  00000+0 -85683-4 0  9991
2 54662  87.9348 342.2545 0001721  71.9493 288.1828 13.21826247106867
